{
  "norad_id": 63910,
  "name": "STARLINK-34071",
  "history": [
    {
      "epoch": "2026-04-13T15:51:03.534912Z",
      "apogee_km": 484.02595081603977,
      "perigee_km": 482.06502486101635,
      "latitude_deg": 7.439165580000524e-06,
      "longitude_deg": -100.67226644455866,
      "height_km": 482.9310332409672,
      "semi_major_axis_km": 6861.182487838528,
      "eccentricity": 0.0001429,
      "inclination_deg": 43.001,
      "raan_deg": 338.9405,
      "arg_perigee_deg": 263.6329,
      "mean_anomaly_deg": 96.436,
      "mean_motion_rev_day": 15.27581205
    },
    {
      "epoch": "2026-04-15T21:12:22.411872Z",
      "apogee_km": 483.79999736652644,
      "perigee_km": 482.2617235322141,
      "latitude_deg": -9.647523790932475e-06,
      "longitude_deg": 164.25304281786705,
      "height_km": 482.79130199998207,
      "semi_major_axis_km": 6861.16786044937,
      "eccentricity": 0.0001121,
      "inclination_deg": 42.9985,
      "raan_deg": 326.3857,
      "arg_perigee_deg": 271.1815,
      "mean_anomaly_deg": 88.8908,
      "mean_motion_rev_day": 15.2758609
    },
    {
      "epoch": "2026-04-16T00:20:41.026272Z",
      "apogee_km": 484.0451950563356,
      "perigee_km": 481.9799890291306,
      "latitude_deg": 6.2357474792354915e-06,
      "longitude_deg": 116.3064062375557,
      "height_km": 482.8838948829669,
      "semi_major_axis_km": 6861.149592042733,
      "eccentricity": 0.0001505,
      "inclination_deg": 43.0019,
      "raan_deg": 325.6455,
      "arg_perigee_deg": 264.759,
      "mean_anomaly_deg": 95.309,
      "mean_motion_rev_day": 15.27592191
    },
    {
      "epoch": "2026-04-17T20:17:03.846624Z",
      "apogee_km": 483.7745106221564,
      "perigee_km": 482.2583329390118,
      "latitude_deg": 1.528134628880638e-05,
      "longitude_deg": 165.06469570494963,
      "height_km": 483.0840917705719,
      "semi_major_axis_km": 6861.153421780584,
      "eccentricity": 0.00011049,
      "inclination_deg": 43.0011,
      "raan_deg": 315.3034,
      "arg_perigee_deg": 247.4095,
      "mean_anomaly_deg": 112.664,
      "mean_motion_rev_day": 15.27590912
    },
    {
      "epoch": "2026-04-18T19:49:24.639168Z",
      "apogee_km": 483.7908984485821,
      "perigee_km": 482.19637168899226,
      "latitude_deg": 3.3089438562020177e-05,
      "longitude_deg": 165.47406241146206,
      "height_km": 482.9091530903852,
      "semi_major_axis_km": 6861.130635068787,
      "eccentricity": 0.0001162,
      "inclination_deg": 43.0002,
      "raan_deg": 309.7661,
      "arg_perigee_deg": 259.9568,
      "mean_anomaly_deg": 100.1153,
      "mean_motion_rev_day": 15.27598522
    }
  ]
}